NORAD_CAT_ID,OBJECT_NAME,OBJECT_TYPE,EPOCH,MEAN_MOTION,ECCENTRICITY,INCLINATION,RA_OF_ASC_NODE,ARG_OF_PERICENTER,MEAN_ANOMALY,BSTAR,MEAN_MOTION_DOT,MEAN_MOTION_DDOT,TLE_LINE0,TLE_LINE1,TLE_LINE2,SEMIMAJOR_AXIS,PERIOD,APOGEE,PERIGEE,DECAYED
53273.0,STARLINK-4051,PAYLOAD,2024-05-21 14:15:49,15.08838455,0.0001122,53.217,253.9268,115.7086,244.4022,0.00024195,3.565e-05,0.0,0 STARLINK-4051,1 53273U 22086AH  24142.59431912  .00003565  00000-0  24195-3 0  9998,2 53273  53.2170 253.9268 0001122 115.7086 244.4022 15.08838455101994,6917.885,95.438,540.526,538.974,0.0
53273.0,STARLINK-4051,PAYLOAD,2024-05-22 12:31:13,15.08841199,0.0001105,53.2169,249.7707,95.7752,264.3366,0.00011498,1.543e-05,0.0,0 STARLINK-4051,1 53273U 22086AH  24143.52167976  .00001543  00000-0  11498-3 0  9994,2 53273  53.2169 249.7707 0001105  95.7752 264.3366 15.08841199102139,6917.877,95.437,540.506,538.977,0.0
53273.0,STARLINK-4051,PAYLOAD,2024-05-23 12:22:00,15.0884148,0.0001125,53.2171,245.3128,90.0967,270.0154,0.00011367,1.522e-05,0.0,0 STARLINK-4051,1 53273U 22086AH  24144.51528292  .00001522  00000-0  11367-3 0  9998,2 53273  53.2171 245.3128 0001125  90.0967 270.0154 15.08841480102119,6917.876,95.437,540.519,538.963,0.0
53273.0,STARLINK-4051,PAYLOAD,2024-05-24 13:48:09,15.08866842,9.29e-05,53.2154,240.5469,88.2375,271.8724,0.00045217,6.921e-05,0.0,0 STARLINK-4051,1 53273U 22086AH  24145.57510967  .00006921  00000-0  45217-3 0  9994,2 53273  53.2154 240.5469 0000929  88.2375 271.8724 15.08866842102445,6917.798,95.436,540.306,539.021,0.0
53273.0,STARLINK-4051,PAYLOAD,2024-05-24 15:23:32,15.0886665,9.75e-05,53.2153,240.2534,82.6865,277.4238,0.00044022,6.73e-05,0.0,0 STARLINK-4051,1 53273U 22086AH  24145.64134940  .00006730  00000-0  44022-3 0  9996,2 53273  53.2153 240.2534 0000975  82.6865 277.4238 15.08866650102288,6917.799,95.436,540.338,538.989,0.0
53273.0,STARLINK-4051,PAYLOAD,2024-05-25 05:42:01,15.08838574,0.0001426,53.215,237.5785,88.7865,271.329,-0.00012124,-2.217e-05,0.0,0 STARLINK-4051,1 53273U 22086AH  24146.23752015 -.00002217  00000-0 -12124-3 0  9997,2 53273  53.2150 237.5785 0001426  88.7865 271.3290 15.08838574102376,6917.885,95.438,540.736,538.763,0.0
53273.0,STARLINK-4051,PAYLOAD,2024-05-25 13:38:57,15.08830621,0.0001087,53.216,236.0925,85.5662,274.5455,-0.00018931,-3.299e-05,0.0,0 STARLINK-4051,1 53273U 22086AH  24146.56872502 -.00003299  00000-0 -18931-3 0  9990,2 53273  53.2160 236.0925 0001087  85.5662 274.5455 15.08830621102597,6917.909,95.438,540.526,539.022,0.0
53273.0,STARLINK-4051,PAYLOAD,2024-05-26 11:54:21,15.08853586,0.0001116,53.2168,231.9302,73.0811,287.0304,9.7945e-05,1.272e-05,0.0,0 STARLINK-4051,1 53273U 22086AH  24147.49607839  .00001272  00000-0  97945-4 0  9992,2 53273  53.2168 231.9302 0001116  73.0811 287.0304 15.08853586102563,6917.839,95.437,540.476,538.932,0.0
53273.0,STARLINK-4051,PAYLOAD,2024-05-27 05:23:36,15.08838071,0.0001517,53.2173,228.6626,62.0416,298.073,0.0002984,4.464e-05,0.0,0 STARLINK-4051,1 53273U 22086AH  24148.22472992  .00004464  00000-0  29840-3 0  9998,2 53273  53.2173 228.6626 0001517  62.0416 298.0730 15.08838071102674,6917.886,95.438,540.801,538.702,0.0
53273.0,STARLINK-4051,PAYLOAD,2024-05-27 11:45:09,15.0884197,0.0001236,53.2159,227.4702,65.7521,294.36,0.00029893,4.473e-05,0.0,0 STARLINK-4051,1 53273U 22086AH  24148.48968767  .00004473  00000-0  29893-3 0  9994,2 53273  53.2159 227.4702 0001236  65.7521 294.3600 15.08841970102885,6917.874,95.437,540.594,538.884,0.0
53273.0,STARLINK-4051,PAYLOAD,2024-05-28 11:35:55,15.0884595,0.0001252,53.216,223.0105,78.0645,282.0488,0.00012572,1.714e-05,0.0,0 STARLINK-4051,1 53273U 22086AH  24149.48328373  .00001714  00000-0  12572-3 0  9999,2 53273  53.2160 223.0105 0001252  78.0645 282.0488 15.08845950102866,6917.862,95.437,540.593,538.861,0.0
53273.0,STARLINK-4051,PAYLOAD,2024-05-29 05:05:10,15.08840044,0.0001341,53.216,219.7401,77.6723,282.4419,2.849e-05,1.66e-06,0.0,0 STARLINK-4051,1 53273U 22086AH  24150.21192534  .00000166  00000-0  28490-4 0  9997,2 53273  53.2160 219.7401 0001341  77.6723 282.4419 15.08840044102977,6917.88,95.438,540.673,538.818,0.0
53273.0,STARLINK-4051,PAYLOAD,2024-05-29 11:26:43,15.08838378,0.0001282,53.2174,218.5504,83.6406,276.4732,2.5099e-05,1.12e-06,0.0,0 STARLINK-4051,1 53273U 22086AH  24150.47688719  .00000112  00000-0  25099-4 0  9993,2 53273  53.2174 218.5504 0001282  83.6406 276.4732 15.08838378103184,6917.885,95.438,540.637,538.863,0.0
53273.0,STARLINK-4051,PAYLOAD,2024-05-30 11:17:29,15.08844388,0.0001301,53.2174,214.0908,83.5558,276.5583,8.0322e-05,9.91e-06,0.0,0 STARLINK-4051,1 53273U 22086AH  24151.47048215  .00000991  00000-0  80322-4 0  9990,2 53273  53.2174 214.0908 0001301  83.5558 276.5583 15.08844388103163,6917.867,95.437,540.632,538.832,0.0
53273.0,STARLINK-4051,PAYLOAD,2024-05-31 04:46:44,15.08835777,0.000137,53.2178,210.8194,86.1012,274.0136,6.7929e-05,7.93e-06,0.0,0 STARLINK-4051,1 53273U 22086AH  24152.19912923  .00000793  00000-0  67929-4 0  9994,2 53273  53.2178 210.8194 0001370  86.1012 274.0136 15.08835777103279,6917.893,95.438,540.706,538.811,0.0
53273.0,STARLINK-4051,PAYLOAD,2024-05-31 09:32:54,15.08837438,0.0001344,53.2176,209.9271,92.6068,267.5078,7.425e-05,8.94e-06,0.0,0 STARLINK-4051,1 53273U 22086AH  24152.39784787  .00000894  00000-0  74250-4 0  9998,2 53273  53.2176 209.9271 0001344  92.6068 267.5078 15.08837438103476,6917.888,95.438,540.683,538.823,0.0
53273.0,STARLINK-4051,PAYLOAD,2024-05-31 11:08:17,15.08839944,0.000124,53.217,209.6304,83.2137,276.8996,9.1157e-05,1.163e-05,0.0,0 STARLINK-4051,1 53273U 22086AH  24152.46408625  .00001163  00000-0  91157-4 0  9995,2 53273  53.2170 209.6304 0001240  83.2137 276.8996 15.08839944103489,6917.881,95.438,540.603,538.888,0.0
53273.0,STARLINK-4051,PAYLOAD,2024-06-01 10:59:04,15.08842338,0.0001473,53.2169,205.1703,97.0684,263.0475,2.3674e-05,8.9e-07,0.0,0 STARLINK-4051,1 53273U 22086AH  24153.45768698  .00000089  00000-0  23674-4 0  9999,2 53273  53.2169 205.1703 0001473  97.0684 263.0475 15.08842338103468,6917.873,95.437,540.757,538.719,0.0
53273.0,STARLINK-4051,PAYLOAD,2024-06-02 12:25:14,15.08838204,0.0001253,53.2164,200.4117,89.2982,270.8154,4.083e-05,3.62e-06,0.0,0 STARLINK-4051,1 53273U 22086AH  24154.51753192  .00000362  00000-0  40830-4 0  9997,2 53273  53.2164 200.4117 0001253  89.2982 270.8154 15.08838204103625,6917.886,95.438,540.618,538.884,0.0
53273.0,STARLINK-4051,PAYLOAD,2024-06-02 20:22:10,15.08838296,0.0001231,53.2159,198.9239,90.5257,269.5877,-1.9337e-05,-5.96e-06,0.0,0 STARLINK-4051,1 53273U 22086AH  24154.84873386 -.00000596  00000-0 -19337-4 0  9990,2 53273  53.2159 198.9239 0001231  90.5257 269.5877 15.08838296103843,6917.886,95.438,540.602,538.899,0.0
53273.0,STARLINK-4051,PAYLOAD,2024-06-03 09:05:15,15.08839535,0.0001233,53.2157,196.5439,91.6274,268.486,5.11e-05,5.25e-06,0.0,0 STARLINK-4051,1 53273U 22086AH  24155.37865306  .00000525  00000-0  51100-4 0  9996,2 53273  53.2157 196.5439 0001233  91.6274 268.4860 15.08839535103926,6917.882,95.438,540.6,538.894,0.0
53273.0,STARLINK-4051,PAYLOAD,2024-06-03 20:12:57,15.08843579,0.000125,53.2161,194.4624,91.4845,268.629,0.00010754,1.424e-05,0.0,0 STARLINK-4051,1 53273U 22086AH  24155.84232906  .00001424  00000-0  10754-3 0  9990,2 53273  53.2161 194.4624 0001250  91.4845 268.6290 15.08843579103994,6917.869,95.437,540.599,538.87,0.0
53273.0,STARLINK-4051,PAYLOAD,2024-06-04 12:06:47,15.08852657,0.0001245,53.2156,191.4887,89.7981,270.3154,0.00018382,2.64e-05,0.0,0 STARLINK-4051,1 53273U 22086AH  24156.50472087  .00002640  00000-0  18382-3 0  9996,2 53273  53.2156 191.4887 0001245  89.7981 270.3154 15.08852657104099,6917.842,95.437,540.568,538.845,0.0
53273.0,STARLINK-4051,PAYLOAD,2024-06-05 05:36:03,15.08842392,0.0001444,53.2138,188.2136,100.3177,259.7978,4.914e-05,4.94e-06,0.0,0 STARLINK-4051,1 53273U 22086AH  24157.23336982  .00000494  00000-0  49140-4 0  9992,2 53273  53.2138 188.2136 0001444 100.3177 259.7978 15.08842392104032,6917.873,95.437,540.737,538.739,0.0
53273.0,STARLINK-4051,PAYLOAD,2024-06-05 11:57:35,15.0884137,0.0001189,53.2164,187.0272,93.0843,267.0285,1.6709e-05,-2.2e-07,0.0,0 STARLINK-4051,1 53273U 22086AH  24157.49833015 -.00000022  00000-0  16709-4 0  9992,2 53273  53.2164 187.0272 0001189  93.0843 267.0285 15.08841370104244,6917.876,95.437,540.564,538.919,0.0
53273.0,STARLINK-4051,PAYLOAD,2024-06-06 05:26:50,15.08836774,0.0001357,53.2162,183.755,95.6334,264.4813,-7.8138e-05,-1.531e-05,0.0,0 STARLINK-4051,1 53273U 22086AH  24158.22697648 -.00001531  00000-0 -78138-4 0  9995,2 53273  53.2162 183.7550 0001357  95.6334 264.4813 15.08836774104187,6917.89,95.438,540.694,538.816,0.0
53273.0,STARLINK-4051,PAYLOAD,2024-06-06 08:37:36,15.08837083,0.0001248,53.2162,183.1632,88.8725,271.241,-5.5847e-05,-1.176e-05,0.0,0 STARLINK-4051,1 53273U 22086AH  24158.35945591 -.00001176  00000-0 -55847-4 0  9999,2 53273  53.2162 183.1632 0001248  88.8725 271.2410 15.08837083104373,6917.889,95.438,540.618,538.891,0.0
53273.0,STARLINK-4051,PAYLOAD,2024-06-07 02:06:51,15.08837378,0.00012,53.216,179.8918,90.2864,269.8266,6.2707e-05,7.1e-06,0.0,0 STARLINK-4051,1 53273U 22086AH  24159.08809333  .00000710  00000-0  62707-4 0  9997,2 53273  53.2160 179.8918 0001200  90.2864 269.8266 15.08837378104480,6917.888,95.438,540.584,538.923,0.0
53273.0,STARLINK-4051,PAYLOAD,2024-06-07 18:00:43,15.08806915,0.0001434,53.216,176.9179,98.7523,261.3632,0.0005527,8.511e-05,0.0,0 STARLINK-4051,1 53273U 22086AH  24159.75050365  .00008511  00000-0  55270-3 0  9997,2 53273  53.2160 176.9179 0001434  98.7523 261.3632 15.08806915104411,6917.982,95.44,540.839,538.854,0.0
53273.0,STARLINK-4051,PAYLOAD,2024-06-08 05:08:24,15.08838277,0.0001219,53.2161,174.8362,83.625,276.488,8.7472e-05,1.104e-05,0.0,0 STARLINK-4051,1 53273U 22086AH  24160.21417509  .00001104  00000-0  87472-4 0  9998,2 53273  53.2161 174.8362 0001219  83.6250 276.4880 15.08838277104489,6917.886,95.438,540.594,538.907,0.0
